     3.04           N: GNSS NAV DATA    G: GPS              RINEX VERSION / TYPE
sbf2rin-13.8.0                          20220131 130515 UTC PGM / RUN BY / DATE 
GPSA   1.4901E-08 -7.4506E-09 -5.9605E-08  1.1921E-07       IONOSPHERIC CORR    
GPSB   1.2288E+05 -1.3107E+05  0.0000E+00 -6.5536E+04       IONOSPHERIC CORR    
                                                            COMMENT             
                                                            COMMENT             
BREW                                    MARKER NAME         COMMENT
40473M001                               MARKER NUMBER       COMMENT
 -2112007.1404 -3705351.8421  4726827.1606                  COMMENT
                                                            END OF HEADER       
G21 2022 01 31 14 00 00 1.572077162564E-04 6.821210263297E-13 0.000000000000E+00
     7.800000000000E+01 6.356250000000E+01 4.568404578102E-09-2.403576031001E+00
     3.870576620102E-06 2.456525538582E-02-1.469627022743E-06 5.153590871811E+03
     1.368000000000E+05 9.499490261078E-08-1.750455834655E+00 4.209578037262E-07
     9.590753764476E-01 4.051562500000E+02-1.015488044525E+00-8.214985044244E-09
     2.650110387735E-10 1.000000000000E+00 2.195000000000E+03 0.000000000000E+00
     2.000000000000E+00 0.000000000000E+00-1.024454832077E-08 7.800000000000E+01
     1.296180000000E+05 4.000000000000E+00
G01 2022 01 31 14 00 00 4.432415589690E-04-9.663381206337E-12 0.000000000000E+00
     5.800000000000E+01 3.378125000000E+01 4.272677974188E-09 1.517984910987E+00
     1.577660441399E-06 1.132316887379E-02-5.122274160385E-07 5.153668405533E+03
     1.368000000000E+05-1.955777406693E-07-1.659921319209E+00 8.009374141693E-08
     9.864738293375E-01 4.026562500000E+02 8.829870322055E-01-8.428922527028E-09
     9.928985010651E-11 1.000000000000E+00 2.195000000000E+03 0.000000000000E+00
     2.000000000000E+00 0.000000000000E+00 5.122274160385E-09 5.800000000000E+01
     1.296180000000E+05 4.000000000000E+00
G08 2022 01 31 14 00 00-5.431054159999E-05-1.477928890381E-12 0.000000000000E+00
     1.600000000000E+01 1.500000000000E+02 4.015881563301E-09-2.482613925304E+00
     7.767230272293E-06 7.228531176224E-03 1.011788845062E-05 5.153719215393E+03
     1.368000000000E+05-6.891787052155E-08-2.739549685904E+00-4.470348358154E-08
     9.652109367955E-01 1.894062500000E+02 9.221824345428E-02-7.768895034233E-09
     1.771502361613E-10 1.000000000000E+00 2.195000000000E+03 0.000000000000E+00
     2.000000000000E+00 0.000000000000E+00 5.122274160385E-09 1.600000000000E+01
     1.296180000000E+05 4.000000000000E+00
G24 2022 01 31 14 00 00 2.763425000012E-04-1.023181539495E-12 0.000000000000E+00
     6.700000000000E+01 1.281250000000E+01 5.773811931014E-09 1.818638140961E+00
     5.327165126801E-07 1.232435565908E-02 5.081295967102E-06 5.153683330536E+03
     1.368000000000E+05-3.054738044739E-07 1.393124109760E+00-5.215406417847E-08
     9.339964577072E-01 2.700000000000E+02 8.054786875119E-01-8.540355740097E-09
     1.314340461842E-10 1.000000000000E+00 2.195000000000E+03 0.000000000000E+00
     2.000000000000E+00 0.000000000000E+00 2.328306436539E-09 6.700000000000E+01
     1.296180000000E+05 4.000000000000E+00
G23 2022 01 31 14 00 00 5.758367478848E-06-3.637978807092E-12 0.000000000000E+00
     5.400000000000E+01-1.802500000000E+02 4.300536277455E-09 8.249061225711E-01
    -9.298324584961E-06 1.981516950764E-03 6.891787052155E-06 5.153707031250E+03
     1.368000000000E+05 3.911554813385E-08-6.518714202155E-01 3.539025783539E-08
     9.674617123322E-01 2.506875000000E+02 2.945555622763E+00-8.062478691742E-09
    -2.271523189487E-10 1.000000000000E+00 2.195000000000E+03 0.000000000000E+00
     2.000000000000E+00 0.000000000000E+00-8.381903171539E-09 5.660000000000E+02
     1.296180000000E+05 4.000000000000E+00
G31 2022 01 31 14 00 00-1.625414006412E-04-1.818989403546E-12 0.000000000000E+00
     6.000000000000E+01 6.718750000000E+00 5.286648781570E-09 4.000192823859E-01
     4.880130290985E-07 1.046684861649E-02 4.684552550316E-06 5.153666326523E+03
     1.368000000000E+05 9.499490261078E-08 1.493705279483E+00 1.434236764908E-07
     9.547247034304E-01 2.824062500000E+02 3.726854699943E-01-8.392135280405E-09
    -4.285892810353E-12 1.000000000000E+00 2.195000000000E+03 0.000000000000E+00
     2.000000000000E+00 0.000000000000E+00-1.350417733192E-08 6.000000000000E+01
     1.296180000000E+05 4.000000000000E+00
G27 2022 01 31 14 00 00 9.758071973920E-05 1.853095454862E-11 0.000000000000E+00
     1.400000000000E+01 1.612812500000E+02 3.753727786401E-09-2.539310139088E+00
     8.272007107735E-06 1.013386622071E-02 9.991228580475E-06 5.153657354355E+03
     1.368000000000E+05 1.676380634308E-08-2.720254880460E+00-1.005828380585E-07
     9.738967437142E-01 1.937812500000E+02 6.332027334698E-01-7.602459530098E-09
     2.292952653539E-10 1.000000000000E+00 2.195000000000E+03 0.000000000000E+00
     2.000000000000E+00 0.000000000000E+00 1.396983861923E-09 1.400000000000E+01
     1.296180000000E+05 4.000000000000E+00
G03 2022 01 31 14 00 00-1.009190455079E-04-1.625721779419E-11 0.000000000000E+00
     9.700000000000E+01-1.563437500000E+02 4.164102022992E-09 3.555832671504E-01
    -8.363276720047E-06 3.859375836328E-03 6.886199116707E-06 5.153696039200E+03
     1.368000000000E+05-2.235174179077E-08-6.243019960897E-01 2.421438694000E-08
     9.726022748001E-01 2.563125000000E+02 9.689835596775E-01-8.018905448170E-09
    -1.932223342001E-10 1.000000000000E+00 2.195000000000E+03 0.000000000000E+00
     2.000000000000E+00 0.000000000000E+00 1.862645149231E-09 9.700000000000E+01
     1.313160000000E+05 4.000000000000E+00
G17 2022 01 31 14 00 00 5.688564851880E-04 5.229594535194E-12 0.000000000000E+00
     2.800000000000E+01 1.597500000000E+02 3.674438769409E-09-2.578040549988E+00
     8.275732398033E-06 1.365871122107E-02 8.370727300644E-06 5.153757337570E+03
     1.368000000000E+05 1.583248376846E-07-2.657910699849E+00 2.235174179077E-08
     9.802710742364E-01 2.296875000000E+02-1.501808512924E+00-7.459596436419E-09
     1.903650723265E-10 1.000000000000E+00 2.195000000000E+03 0.000000000000E+00
     2.000000000000E+00 0.000000000000E+00-1.117587089539E-08 2.800000000000E+01
     1.315260000000E+05 4.000000000000E+00
G12 2022 01 31 13 59 44-1.640319824219E-04-5.684341886081E-12 0.000000000000E+00
     6.000000000000E+00 2.075000000000E+01 4.203389373754E-09 1.946065471038E-01
     1.046806573868E-06 8.628505049273E-03 1.081079244614E-05 5.153609395981E+03
     1.367840000000E+05-9.872019290924E-08 2.588464710276E+00 4.842877388000E-08
     9.706240291982E-01 1.777812500000E+02 1.239416670611E+00-7.783895659069E-09
    -7.925330121811E-10 1.000000000000E+00 2.195000000000E+03 0.000000000000E+00
     2.000000000000E+00 0.000000000000E+00-1.257285475731E-08 6.000000000000E+00
     1.324680000000E+05 4.000000000000E+00
G25 2022 01 31 14 00 00 2.788710407913E-04 5.456968210638E-12 0.000000000000E+00
     6.500000000000E+01 1.043750000000E+01 4.594834250433E-09-4.688994474298E-02
     5.830079317093E-07 1.044341910165E-02 1.016817986965E-05 5.153716178894E+03
     1.368000000000E+05-1.676380634308E-08 2.511948308890E+00 1.136213541031E-07
     9.579838054936E-01 1.812500000000E+02 9.743518458253E-01-8.037834808083E-09
    -8.261058391955E-10 1.000000000000E+00 2.195000000000E+03 0.000000000000E+00
     2.000000000000E+00 0.000000000000E+00 5.587935447693E-09 6.500000000000E+01
     1.330080000000E+05 4.000000000000E+00
